{"type":"FeatureCollection","crs":{"type":"name","properties":{"name":"EPSG:4326"}},"features":[{"type":"Feature","geometry":{"type":"Polygon","coordinates":[[[-0.0800589166102533,51.5079705434088],[-0.08037601393606,51.508027334919],[-0.0811554803488642,51.5081148736179],[-0.085146443388475,51.5085629925169],[-0.0854549989783372,51.5085976287518],[-0.0885584050838637,51.508922102839],[-0.0919624961026863,51.5094041987933],[-0.0922962467912373,51.5094772619367],[-0.0952340303145026,51.5101203403679],[-0.0963329974775968,51.5102700360296],[-0.0993299841669168,51.5106782125926],[-0.0998770504493278,51.5107527118338],[-0.108221024305665,51.510810124402],[-0.108446561292221,51.5108116679186],[-0.108527481118133,51.5108102290386],[-0.111475372963366,51.5107577704465],[-0.111567824442113,51.5153350290831],[-0.105290341558648,51.5185548578323],[-0.0852326450965759,51.5203483962659],[-0.0785291057043016,51.5215119179615],[-0.0800589166102533,51.5079705434088]]]},"properties":{"LAD25CD":"E09000001","LAD25NM":"City of London"}},{"type":"Feature","geometry":{"type":"MultiPolygon","coordinates":[[[[0.128620890855794,51.5132941538122],[0.133765379101177,51.5117039040052],[0.125795285195226,51.5126709075388],[0.128620890855794,51.5132941538122]]],[[[0.146703647684621,51.5687966333103],[0.161893735700278,51.5616168728879],[0.185180463309676,51.5655130817138],[0.190222134044087,51.5526523961339],[0.16006723582082,51.5117137200396],[0.159207809614416,51.5120158863305],[0.159049531255042,51.5120715343138],[0.158721674311475,51.5121868019303],[0.143206847940588,51.5153245714514],[0.141864531167574,51.5156528094271],[0.141819593023275,51.5156637978947],[0.126345975161068,51.5194462649611],[0.109074895650993,51.5142500204737],[0.100509379900435,51.5145693097708],[0.0977882718338274,51.5159064461463],[0.0975800373066397,51.5160087659265],[0.0926015481694193,51.5256979963262],[0.0727454762217297,51.5292747368747],[0.0683616946338665,51.5443903891844],[0.0935197644735265,51.5458578934501],[0.118901016628217,51.5573709901029],[0.131578541181193,51.5718243711119],[0.126386612488677,51.5867252201384],[0.14820590165784,51.5989684642457],[0.146703647684621,51.5687966333103]]]]},"properties":{"LAD25CD":"E09000002","LAD25NM":"Barking and Dagenham"}},{"type":"Feature","geometry":{"type":"Polygon","coordinates":[[[-0.181960815257973,51.6686831946979],[-0.185893323219588,51.6628453446743],[-0.154731838818758,51.6555451442674],[-0.129093931888576,51.632265448032],[-0.144495116086128,51.6155090116222],[-0.13870599645949,51.6101857862517],[-0.151330701481231,51.5974710990475],[-0.156483326473497,51.605324577048],[-0.157130981863992,51.5861913943339],[-0.17123183297214,51.5724182505535],[-0.213486677002519,51.5551909320072],[-0.233417227576263,51.5719829575028],[-0.251130244193254,51.5702838716105],[-0.248234179694855,51.584313731365],[-0.267113115479641,51.6003719676663],[-0.304449971011893,51.6363487192482],[-0.25736482156208,51.6418210814576],[-0.250582589477333,51.6560573513569],[-0.212135030723747,51.6613535274521],[-0.203352928676407,51.6701264980577],[-0.191066699360921,51.6638967044063],[-0.181960815257973,51.6686831946979]]]},"properties":{"LAD25CD":"E09000003","LAD25NM":"Barnet"}},{"type":"Feature","geometry":{"type":"Polygon","coordinates":[[[0.133765379101177,51.5117039040052],[0.151296375343893,51.5062825005641],[0.152013469178269,51.5061567081224],[0.163215554731013,51.504190975853],[0.169362164614016,51.4988888682564],[0.169380011573712,51.4988619650002],[0.172101162872704,51.4947595111934],[0.172147224337253,51.4946181692145],[0.172307112621799,51.4941275409117],[0.175197827350929,51.4852556409535],[0.186499592697562,51.4804808286052],[0.186537326334579,51.4804648833723],[0.200844593643595,51.4786571118063],[0.211683788803227,51.4827285921846],[0.217644190043408,51.480448589397],[0.219202439132856,51.4796095638918],[0.221044799984653,51.4786175022421],[0.203374621646498,51.4543154579914],[0.172844869107023,51.4432871508992],[0.164328170821928,51.428584960395],[0.155875040956964,51.4308765823218],[0.152932433172376,51.4087084813763],[0.148869410494427,51.4084291280153],[0.107022545170679,51.4142643641613],[0.0753602122612816,51.4319866512972],[0.0874267537477507,51.4432843424244],[0.0823130742087601,51.4666413145272],[0.098244270803385,51.4754524202916],[0.124191087369442,51.4768490185508],[0.118677535576636,51.5113102762248],[0.118784514355923,51.5113195140937],[0.120239031684623,51.5114451012656],[0.125795285195226,51.5126709075388],[0.133765379101177,51.5117039040052]]]},"properties":{"LAD25CD":"E09000004","LAD25NM":"Bexley"}},{"type":"Feature","geometry":{"type":"Polygon","coordinates":[[[-0.213486677002519,51.5551909320072],[-0.191467608561554,51.5362923581516],[-0.196479321959949,51.5276386356437],[-0.205142405490973,51.5329559007801],[-0.216020723983129,51.527920360249],[-0.228440758153743,51.5303191562848],[-0.246281570983423,51.5327375094287],[-0.284241047709167,51.5289125949116],[-0.282457376588103,51.538648675971],[-0.307453582279767,51.5330870579547],[-0.307735039440404,51.5458788149102],[-0.335555531666752,51.5565568991247],[-0.322148244821014,51.5696770562365],[-0.326642146067183,51.5787751463652],[-0.304696795432772,51.5870525523909],[-0.282465247610045,51.5850349664459],[-0.290405901610672,51.5935438008452],[-0.267113115479641,51.6003719676663],[-0.248234179694855,51.584313731365],[-0.251130244193254,51.5702838716105],[-0.233417227576263,51.5719829575028],[-0.213486677002519,51.5551909320072]]]},"properties":{"LAD25CD":"E09000005","LAD25NM":"Brent"}},{"type":"Feature","geometry":{"type":"Polygon","coordinates":[[[0.0753602122612816,51.4319866512972],[0.107022545170679,51.4142643641613],[0.148869410494427,51.4084291280153],[0.162384150043184,51.3924903020233],[0.147741030714359,51.3928010018088],[0.152057738933261,51.3696937046945],[0.136958108456318,51.3441746048812],[0.118456303441167,51.3441477823276],[0.117900333226097,51.3296471000251],[0.085029299988601,51.3160232043694],[0.085693083414603,51.2930842265565],[0.042396497430127,51.2926730467214],[0.0329094179322316,51.3075209105802],[0.0150093784679093,51.2917860691426],[0.00225531192400326,51.3291348341144],[-0.0267665701211415,51.3793759344976],[-0.0369028641950523,51.3770169032175],[-0.0365234986870309,51.38843153651],[-0.0682015255568677,51.4034883099076],[-0.0785573671724678,51.4198742113104],[-0.0782876818800692,51.4206047134332],[-0.0739072700998478,51.4262129230519],[-0.0302158963800441,51.4256827896758],[-0.0103120802634173,51.4135777931192],[0.0254589773282689,51.4289732417637],[0.0362760239316944,51.4224184609948],[0.0293788155005801,51.44170541883],[0.061705411141948,51.4237003699288],[0.0753602122612816,51.4319866512972]]]},"properties":{"LAD25CD":"E09000006","LAD25NM":"Bromley"}},{"type":"Feature","geometry":{"type":"Polygon","coordinates":[[[-0.14239561120072,51.5691060019668],[-0.122563726204788,51.5307531134212],[-0.105290341558648,51.5185548578323],[-0.111567824442113,51.5153350290831],[-0.129335251259481,51.5134727051536],[-0.152684835329384,51.5375107530782],[-0.191467608561554,51.5362923581516],[-0.213486677002519,51.5551909320072],[-0.17123183297214,51.5724182505535],[-0.14239561120072,51.5691060019668]]]},"properties":{"LAD25CD":"E09000007","LAD25NM":"Camden"}},{"type":"Feature","geometry":{"type":"Polygon","coordinates":[[[-0.0785573671724678,51.4198742113104],[-0.0682015255568677,51.4034883099076],[-0.0365234986870309,51.38843153651],[-0.0369028641950523,51.3770169032175],[-0.0267665701211415,51.3793759344976],[0.00225531192400326,51.3291348341144],[-0.0379200854497904,51.3387247432932],[-0.0513072247610965,51.3224522765565],[-0.0789130205771895,51.3197699387298],[-0.0912237418672903,51.3014752290573],[-0.124301850029936,51.2867904031611],[-0.137245888383678,51.300763842139],[-0.155317700345265,51.3012743937466],[-0.156523624561657,51.321485286252],[-0.14557670392873,51.3234929540783],[-0.144576133845834,51.3420876651782],[-0.116842029977448,51.3457628590904],[-0.134321993903791,51.3908470661783],[-0.124139637510634,51.3976095679571],[-0.127724902236922,51.4123163306016],[-0.112631773723551,51.4232442686004],[-0.0785573671724678,51.4198742113104]]]},"properties":{"LAD25CD":"E09000008","LAD25NM":"Croydon"}},{"type":"Feature","geometry":{"type":"Polygon","coordinates":[[[-0.246281570983423,51.5327375094287],[-0.253040909966186,51.5014223342239],[-0.267676633366511,51.4939192512037],[-0.280772402092,51.5028475273753],[-0.294015372580519,51.5015593261514],[-0.311911168808834,51.4919714576592],[-0.350619148399036,51.4991066570781],[-0.371851047191365,51.4904761549128],[-0.406918399587474,51.499666397136],[-0.3761902207783,51.5288173306636],[-0.419452371528133,51.5403323254858],[-0.395285532006663,51.5425516328212],[-0.398706173814887,51.5478973597145],[-0.377843376019978,51.5549770635102],[-0.335555531666752,51.5565568991247],[-0.307735039440404,51.5458788149102],[-0.307453582279767,51.5330870579547],[-0.282457376588103,51.538648675971],[-0.284241047709167,51.5289125949116],[-0.246281570983423,51.5327375094287]]]},"properties":{"LAD25CD":"E09000009","LAD25NM":"Ealing"}},{"type":"Feature","geometry":{"type":"Polygon","coordinates":[[[-0.011918675972722,51.6808778146614],[-0.0122596870547121,51.6462286962719],[-0.041390716789704,51.6056467844159],[-0.13870599645949,51.6101857862517],[-0.144495116086128,51.6155090116222],[-0.129093931888576,51.632265448032],[-0.154731838818758,51.6555451442674],[-0.185893323219588,51.6628453446743],[-0.181960815257973,51.6686831946979],[-0.163493271974568,51.6881150787478],[-0.105779139838692,51.6918756442007],[-0.011918675972722,51.6808778146614]]]},"properties":{"LAD25CD":"E09000010","LAD25NM":"Enfield"}},{"type":"Feature","geometry":{"type":"MultiPolygon","coordinates":[[[[-0.0187614444883797,51.4789149264729],[-0.0195745578854929,51.478187543938],[-0.0220224580106943,51.4836873367573],[-0.0170903180449492,51.4804097977224],[-0.0173252455088245,51.4801996531062],[-0.0187614444883797,51.4789149264729]]],[[[-0.00649837166247987,51.4871259700283],[-0.0163816641307183,51.4861488167725],[-0.0182539750195338,51.4869017328643],[-0.00649837166247987,51.4871259700283]]],[[[-0.00302449911028931,51.4908752952604],[-0.00321863460504855,51.4906657854092],[-0.00328957989154049,51.491369695655],[-0.00323674392972222,51.4912711514299],[-0.00302449911028931,51.4908752952604]]],[[[0.118677535576636,51.5113102762248],[0.124191087369442,51.4768490185508],[0.098244270803385,51.4754524202916],[0.0823130742087601,51.4666413145272],[0.0874267537477507,51.4432843424244],[0.0753602122612816,51.4319866512972],[0.061705411141948,51.4237003699288],[0.0293788155005801,51.44170541883],[0.00996216568892469,51.4593950372139],[0.017962965802973,51.4738300333518],[-0.0150615449572877,51.4680444319148],[-0.0195059604218515,51.4780334047106],[-0.018980270354387,51.4784686620242],[-0.0168340745733652,51.4802455797102],[-0.0149992974311414,51.4817665637771],[-0.0178584573832501,51.4832186940558],[-0.0109251849859338,51.4839842238117],[-0.00470017229324967,51.4846711770922],[-0.00461859352853049,51.4847311625206],[0.00247343704341189,51.4899452452828],[0.00118580996119195,51.4927305627473],[-0.00224019592642529,51.5001398594115],[-0.00100546250214412,51.5018904736163],[0.000516109745909446,51.5040475768075],[0.00136645390955042,51.5042260946716],[0.00558687393365308,51.5017778641016],[0.0154158417131342,51.4960746969671],[0.0157264207044849,51.4958944510594],[0.0290454308537624,51.4939165459781],[0.029596384973964,51.4939397177828],[0.0297440265845601,51.4939459272458],[0.0457984490117824,51.4946199015782],[0.0611039704935613,51.4952603953971],[0.0750474141654847,51.4958421511036],[0.0759243680540068,51.4958786839926],[0.0762345446849466,51.4958916035646],[0.0824310970958383,51.4988617105771],[0.0827214381594712,51.4991679695343],[0.0839006700998783,51.5004117975328],[0.0880219220250108,51.5047584430324],[0.0911711239438588,51.5080792170148],[0.093531023588613,51.5091361587317],[0.118677535576636,51.5113102762248]]]]},"properties":{"LAD25CD":"E09000011","LAD25NM":"Greenwich"}},{"type":"Feature","geometry":{"type":"Polygon","coordinates":[[[-0.0171743352515583,51.5515772837198],[-0.016549676137034,51.543329866783],[-0.0624344459546157,51.5355324975372],[-0.0785291057043016,51.5215119179615],[-0.0852326450965759,51.5203483962659],[-0.0970323369192637,51.5330033394181],[-0.0765590869722008,51.5478395014255],[-0.104373934561655,51.5647666575849],[-0.0977417526281106,51.5736234691553],[-0.0611585720665009,51.5777860361975],[-0.047079099058099,51.5625921104878],[-0.0283905349440393,51.5610202500371],[-0.0171743352515583,51.5515772837198]]]},"properties":{"LAD25CD":"E09000012","LAD25NM":"Hackney"}},{"type":"Feature","geometry":{"type":"MultiPolygon","coordinates":[[[[-0.228011328288862,51.4851101169033],[-0.227177692043385,51.4826533161949],[-0.228643996851768,51.4854343765101],[-0.228011328288862,51.4851101169033]]],[[[-0.233492441648584,51.4879190765548],[-0.238111489367144,51.4879063880744],[-0.235505416577919,51.4889505340594],[-0.233492441648584,51.4879190765548]]],[[[-0.214177219911025,51.5008341830221],[-0.179618834931522,51.478736465009],[-0.181663969506671,51.478100958132],[-0.18377559746026,51.4774447330174],[-0.183856622798358,51.477419551406],[-0.182839873300327,51.4774596035647],[-0.179441290136891,51.4775135540184],[-0.181311672374052,51.4738438375283],[-0.187906166467776,51.4669984957713],[-0.188811281644963,51.4668275007963],[-0.195509893712524,51.4655617314097],[-0.21764456842818,51.4712762469355],[-0.222216221236814,51.4792315250941],[-0.223747436397827,51.4818953733784],[-0.224064562272722,51.4824470364754],[-0.226540197049036,51.4859511161312],[-0.227559643979108,51.4873939190688],[-0.234390850326629,51.4904260585363],[-0.24347085721075,51.4888844108705],[-0.243609073608919,51.4888609373632],[-0.244010807714427,51.4887927092094],[-0.253040909966186,51.5014223342239],[-0.246281570983423,51.5327375094287],[-0.228440758153743,51.5303191562848],[-0.214177219911025,51.5008341830221]]]]},"properties":{"LAD25CD":"E09000013","LAD25NM":"Hammersmith and Fulham"}},{"type":"Feature","geometry":{"type":"Polygon","coordinates":[[[-0.041390716789704,51.6056467844159],[-0.0611585720665009,51.5777860361975],[-0.0977417526281106,51.5736234691553],[-0.104373934561655,51.5647666575849],[-0.119534587269282,51.575506765326],[-0.14239561120072,51.5691060019668],[-0.17123183297214,51.5724182505535],[-0.157130981863992,51.5861913943339],[-0.156483326473497,51.605324577048],[-0.151330701481231,51.5974710990475],[-0.13870599645949,51.6101857862517],[-0.041390716789704,51.6056467844159]]]},"properties":{"LAD25CD":"E09000014","LAD25NM":"Haringey"}},{"type":"Feature","geometry":{"type":"Polygon","coordinates":[[[-0.304449971011893,51.6363487192482],[-0.267113115479641,51.6003719676663],[-0.290405901610672,51.5935438008452],[-0.282465247610045,51.5850349664459],[-0.304696795432772,51.5870525523909],[-0.326642146067183,51.5787751463652],[-0.322148244821014,51.5696770562365],[-0.335555531666752,51.5565568991247],[-0.377843376019978,51.5549770635102],[-0.404003977890064,51.6131839726247],[-0.362621257698241,51.6235048165802],[-0.316672244970353,51.6405355666504],[-0.304449971011893,51.6363487192482]]]},"properties":{"LAD25CD":"E09000015","LAD25NM":"Harrow"}},{"type":"Feature","geometry":{"type":"MultiPolygon","coordinates":[[[[0.166190946323591,51.503668634541],[0.169362164614016,51.4988888682564],[0.163215554731013,51.504190975853],[0.166190946323591,51.503668634541]]],[[[0.269866485133475,51.5995544498121],[0.290289733913774,51.5642993923202],[0.313035079940716,51.565818131885],[0.334024218329939,51.5405038037667],[0.265347272043956,51.5321502650611],[0.263682923643184,51.5178697921034],[0.253834318187163,51.5178858715831],[0.248964774122808,51.5286740288278],[0.23717600954358,51.5193344334906],[0.241919319161816,51.5079601268953],[0.226597286350539,51.5065632427159],[0.229965349544136,51.4993659187165],[0.214156929096117,51.4960396098803],[0.211870088916148,51.4899589554105],[0.210553951469516,51.490243106395],[0.187684066854566,51.4878588734338],[0.182035195733018,51.4986273269182],[0.178574966651708,51.5052038621519],[0.16006723582082,51.5117137200396],[0.190222134044087,51.5526523961339],[0.185180463309676,51.5655130817138],[0.161893735700278,51.5616168728879],[0.146703647684621,51.5687966333103],[0.14820590165784,51.5989684642457],[0.138184235471144,51.6235453960564],[0.200311572516926,51.6249357566968],[0.224087730411796,51.6317377614501],[0.252194314453482,51.6177694048916],[0.26456196557058,51.6083206608749],[0.254008700235285,51.6015982007674],[0.269866485133475,51.5995544498121]]]]},"properties":{"LAD25CD":"E09000016","LAD25NM":"Havering"}},{"type":"Feature","geometry":{"type":"Polygon","coordinates":[[[-0.404003977890064,51.6131839726247],[-0.377843376019978,51.5549770635102],[-0.398706173814887,51.5478973597145],[-0.395285532006663,51.5425516328212],[-0.419452371528133,51.5403323254858],[-0.3761902207783,51.5288173306636],[-0.406918399587474,51.499666397136],[-0.41691849392387,51.4824764802677],[-0.41113166386798,51.4698875138532],[-0.443949638873137,51.4532905913539],[-0.458723754309907,51.4563417400208],[-0.509807321692741,51.469207263699],[-0.490024731164425,51.4947476343761],[-0.4832235109622,51.5070849116577],[-0.495487343928382,51.5385452300165],[-0.476620654293635,51.5591888368951],[-0.500595886737316,51.5996898986458],[-0.496828509147855,51.6317238405222],[-0.457130755473738,51.6122938890699],[-0.440575301279442,51.6200732383835],[-0.404003977890064,51.6131839726247]]]},"properties":{"LAD25CD":"E09000017","LAD25NM":"Hillingdon"}},{"type":"Feature","geometry":{"type":"MultiPolygon","coordinates":[[[[-0.257312818819596,51.4714182405149],[-0.257492822103567,51.4712055245743],[-0.257663504931694,51.4712848709992],[-0.257312818819596,51.4714182405149]]],[[[-0.294872412569871,51.4848711595201],[-0.317200944725657,51.4654729684972],[-0.319245650051518,51.4683613310391],[-0.31012093679786,51.4735277223052],[-0.30983239990026,51.4737477376985],[-0.295386562512078,51.4847594821202],[-0.294872412569871,51.4848711595201]]],[[[-0.24604784692551,51.4847259468928],[-0.249386048423458,51.4807833657601],[-0.248520909527052,51.4837346755605],[-0.24604784692551,51.4847259468928]]],[[[-0.278038584217781,51.4821304121553],[-0.276307104967401,51.4799488463032],[-0.289443904327661,51.4860501068583],[-0.287272129073823,51.4865216775146],[-0.278226514584659,51.4822638226026],[-0.278038584217781,51.4821304121553]]],[[[-0.280772402092,51.5028475273753],[-0.267676633366511,51.4939192512037],[-0.253040909966186,51.5014223342239],[-0.244010807714427,51.4887927092094],[-0.244539277274199,51.4887029546299],[-0.249710507181286,51.4856921178267],[-0.25411076217848,51.4752018431262],[-0.256268406402716,51.4726524163974],[-0.261415508384895,51.4730289583342],[-0.273018321879788,51.4784209221302],[-0.273371229042023,51.4788616387658],[-0.274932136015606,51.4808108135323],[-0.277084648927052,51.4834984502321],[-0.283771281164292,51.4861995584181],[-0.283822026335196,51.4862355745529],[-0.283874285582858,51.4862411617945],[-0.286871819688156,51.487451804713],[-0.28744754811658,51.4876843129593],[-0.289886242416026,51.4871718754152],[-0.290792466686978,51.4869806333484],[-0.291644006815054,51.4870716228206],[-0.292096182057123,51.487281559441],[-0.292261946440811,51.4871376479456],[-0.292507598651842,51.4871638939045],[-0.295351450650598,51.4860184113074],[-0.298199980779951,51.4854170872073],[-0.298964454878668,51.4852556918667],[-0.299091593713872,51.485112562179],[-0.304398983515156,51.4791365693211],[-0.304430251816544,51.4791013571749],[-0.306930916350892,51.4762095919569],[-0.308369846307205,51.4757027533677],[-0.319125119119623,51.4714774198758],[-0.320219875927036,51.4688804242641],[-0.321712316644831,51.4654065958495],[-0.32138312332748,51.4651664772361],[-0.31929704583017,51.4636509014766],[-0.326934014640788,51.457010898985],[-0.373024056271843,51.4574730203045],[-0.387815795898182,51.4494384555162],[-0.366823470215651,51.4416233263017],[-0.39131707100993,51.4223154118767],[-0.45646755928571,51.4381066796859],[-0.458723754309907,51.4563417400208],[-0.443949638873137,51.4532905913539],[-0.41113166386798,51.4698875138532],[-0.41691849392387,51.4824764802677],[-0.406918399587474,51.499666397136],[-0.371851047191365,51.4904761549128],[-0.350619148399036,51.4991066570781],[-0.311911168808834,51.4919714576592],[-0.294015372580519,51.5015593261514],[-0.280772402092,51.5028475273753]]]]},"properties":{"LAD25CD":"E09000018","LAD25NM":"Hounslow"}},{"type":"Feature","geometry":{"type":"Polygon","coordinates":[[[-0.104373934561655,51.5647666575849],[-0.0765590869722008,51.5478395014255],[-0.0970323369192637,51.5330033394181],[-0.0852326450965759,51.5203483962659],[-0.105290341558648,51.5185548578323],[-0.122563726204788,51.5307531134212],[-0.14239561120072,51.5691060019668],[-0.119534587269282,51.575506765326],[-0.104373934561655,51.5647666575849]]]},"properties":{"LAD25CD":"E09000019","LAD25NM":"Islington"}},{"type":"Feature","geometry":{"type":"MultiPolygon","coordinates":[[[[-0.16035236816493,51.4819030170047],[-0.174397155685456,51.4783813230247],[-0.174155762141814,51.4789091812598],[-0.171290040963151,51.4797851118573],[-0.166275582534315,51.4813175692848],[-0.16035236816493,51.4819030170047]]],[[[-0.216020723983129,51.527920360249],[-0.179521115667993,51.4977661136681],[-0.158457848304668,51.5022261968961],[-0.150248050472509,51.4854494793049],[-0.150330007354558,51.4854385976596],[-0.150582216264032,51.4854051099005],[-0.163805319798312,51.4836485548371],[-0.164344729425399,51.4834810533702],[-0.179618834931522,51.478736465009],[-0.214177219911025,51.5008341830221],[-0.228440758153743,51.5303191562848],[-0.216020723983129,51.527920360249]]]]},"properties":{"LAD25CD":"E09000020","LAD25NM":"Kensington and Chelsea"}},{"type":"Feature","geometry":{"type":"Polygon","coordinates":[[[-0.251085089413751,51.432557791518],[-0.239691091190174,51.3892739323285],[-0.245027866580531,51.3800591554688],[-0.260996427671818,51.3795939509652],[-0.288469327282705,51.3621278871387],[-0.30618917299884,51.3350755647039],[-0.330655551869037,51.329009638114],[-0.330510146371957,51.3484194351447],[-0.307365443633207,51.3783835450886],[-0.317697879461912,51.3936670793324],[-0.308788746091744,51.4019168827762],[-0.310650913997973,51.4322095269603],[-0.290616410459767,51.4289901643301],[-0.286559992341689,51.4201854927708],[-0.254066366518792,51.4372878642506],[-0.251085089413751,51.432557791518]]]},"properties":{"LAD25CD":"E09000021","LAD25NM":"Kingston upon Thames"}},{"type":"Feature","geometry":{"type":"Polygon","coordinates":[[[-0.0782876818800692,51.4206047134332],[-0.0785573671724678,51.4198742113104],[-0.112631773723551,51.4232442686004],[-0.127724902236922,51.4123163306016],[-0.148064535784428,51.4128701124716],[-0.140358848161646,51.4192637035847],[-0.135888414709844,51.4419758924958],[-0.143610577448564,51.4418389617206],[-0.151211614592545,51.4658611552256],[-0.130618267762537,51.4848347379085],[-0.128430560959041,51.4850497271864],[-0.128088236601812,51.4852700558828],[-0.125525092498704,51.4869196588494],[-0.125070608172031,51.4877256263541],[-0.121983303893627,51.4931996936216],[-0.121352821058677,51.4943173900731],[-0.120396531928177,51.4979176235124],[-0.113449295379141,51.5071197928679],[-0.109125213989273,51.5083548633509],[-0.108224646364217,51.4803067882723],[-0.0900394926505244,51.4660655942519],[-0.101383006818995,51.4519239774812],[-0.0782876818800692,51.4206047134332]]]},"properties":{"LAD25CD":"E09000022","LAD25NM":"Lambeth"}},{"type":"Feature","geometry":{"type":"Polygon","coordinates":[[[-0.0220224580106943,51.4836873367573],[-0.0195745578854929,51.478187543938],[-0.0227415564966814,51.475354171187],[-0.0195059604218515,51.4780334047106],[-0.0150615449572877,51.4680444319148],[0.017962965802973,51.4738300333518],[0.00996216568892469,51.4593950372139],[0.0293788155005801,51.44170541883],[0.0362760239316944,51.4224184609948],[0.0254589773282689,51.4289732417637],[-0.0103120802634173,51.4135777931192],[-0.0302158963800441,51.4256827896758],[-0.0739072700998478,51.4262129230519],[-0.0618014306463358,51.447786577102],[-0.0416433271958962,51.4550049754177],[-0.0539719679477537,51.4879383858262],[-0.0323028890378385,51.492973473446],[-0.0248209130048979,51.4855466859933],[-0.0243027931398687,51.4852024518886],[-0.0220224580106943,51.4836873367573]]]},"properties":{"LAD25CD":"E09000023","LAD25NM":"Lewisham"}},{"type":"Feature","geometry":{"type":"Polygon","coordinates":[[[-0.140358848161646,51.4192637035847],[-0.148064535784428,51.4128701124716],[-0.127724902236922,51.4123163306016],[-0.124139637510634,51.3976095679571],[-0.134321993903791,51.3908470661783],[-0.165214785175961,51.3879717138277],[-0.174812978456833,51.3934129458752],[-0.188399006002823,51.3854342806016],[-0.209783879622302,51.3882997551536],[-0.218080128415406,51.3801823745994],[-0.239691091190174,51.3892739323285],[-0.251085089413751,51.432557791518],[-0.190026527777626,51.4414645840233],[-0.181939169287309,51.4247312714289],[-0.140358848161646,51.4192637035847]]]},"properties":{"LAD25CD":"E09000024","LAD25NM":"Merton"}},{"type":"Feature","geometry":{"type":"MultiPolygon","coordinates":[[[[0.093531023588613,51.5091361587317],[0.0911711239438588,51.5080792170148],[0.0920521297700356,51.5090081162801],[0.093531023588613,51.5091361587317]]],[[[0.0503449924892256,51.5640217703103],[0.0683616946338665,51.5443903891844],[0.0727454762217297,51.5292747368747],[0.0926015481694193,51.5256979963262],[0.0975800373066397,51.5160087659265],[0.0969273504494541,51.5163294690499],[0.0960699880794032,51.5167507295967],[0.0967901178299367,51.5151511987068],[0.0845804631805836,51.512210528955],[0.0790274188107048,51.5068175408926],[0.0773375470091592,51.5051760299816],[0.0770639444988711,51.5049102456392],[0.0709057431350203,51.5006422860434],[0.0686613479588301,51.4990865709587],[0.0391165482248049,51.4985676936577],[0.0244415401970016,51.4983071926065],[0.0190380042262118,51.5015470646492],[0.0157449867445838,51.5035211873419],[0.0134809968335669,51.504878274849],[0.00942622622911539,51.5078980414309],[0.00837588793803076,51.5086801902431],[0.00878385951469926,51.5073176138539],[0.00755731380946194,51.5073205015658],[0.00594628332836147,51.507324275254],[-0.021129061565773,51.5365081689252],[-0.016549676137034,51.543329866783],[-0.0171743352515583,51.5515772837198],[0.0204742041657707,51.5561281250745],[0.0462726110117307,51.5548299397683],[0.0503449924892256,51.5640217703103]]]]},"properties":{"LAD25CD":"E09000025","LAD25NM":"Newham"}},{"type":"Feature","geometry":{"type":"Polygon","coordinates":[[[0.138184235471144,51.6235453960564],[0.14820590165784,51.5989684642457],[0.126386612488677,51.5867252201384],[0.131578541181193,51.5718243711119],[0.118901016628217,51.5573709901029],[0.0935197644735265,51.5458578934501],[0.0683616946338665,51.5443903891844],[0.0503449924892256,51.5640217703103],[0.0462726110117307,51.5548299397683],[0.0204742041657707,51.5561281250745],[0.0120959005062663,51.5926905007426],[0.0214437715851012,51.6118028969615],[0.00869444540428972,51.6190699014527],[0.021819035344359,51.6288327861104],[0.072867372178107,51.6046655224122],[0.138184235471144,51.6235453960564]]]},"properties":{"LAD25CD":"E09000026","LAD25NM":"Redbridge"}},{"type":"Feature","geometry":{"type":"MultiPolygon","coordinates":[[[[-0.25411076217848,51.4752018431262],[-0.25521169579162,51.4725763925752],[-0.255740940674504,51.4726138154967],[-0.256268406402716,51.4726524163974],[-0.25411076217848,51.4752018431262]]],[[[-0.273018321879788,51.4784209221302],[-0.261415508384895,51.4730289583342],[-0.269154104837155,51.4735946528108],[-0.273018321879788,51.4784209221302]]],[[[-0.292096182057123,51.487281559441],[-0.291644006815054,51.4870716228206],[-0.292261946440811,51.4871376479456],[-0.292096182057123,51.487281559441]]],[[[-0.224887474762834,51.4759027515368],[-0.223687207635472,51.4723640307096],[-0.232733298874365,51.4725107587178],[-0.233290023158623,51.4639717456149],[-0.256187822981795,51.4628340747681],[-0.259111198831886,51.4549534889518],[-0.24159865877434,51.4431179850847],[-0.254066366518792,51.4372878642506],[-0.286559992341689,51.4201854927708],[-0.290616410459767,51.4289901643301],[-0.310650913997973,51.4322095269603],[-0.308788746091744,51.4019168827762],[-0.317697879461912,51.3936670793324],[-0.327817849624804,51.3918371417138],[-0.359139332144209,51.4119031604173],[-0.383350026681253,51.4085382950892],[-0.39131707100993,51.4223154118767],[-0.366823470215651,51.4416233263017],[-0.387815795898182,51.4494384555162],[-0.373024056271843,51.4574730203045],[-0.326934014640788,51.457010898985],[-0.31929704583017,51.4636509014766],[-0.313872211174679,51.4597090154664],[-0.313795040289381,51.4596747385099],[-0.305892400035465,51.4561641070348],[-0.304279006346907,51.4516121339997],[-0.305721933936308,51.4509921164738],[-0.315798396056739,51.446661513483],[-0.325075276811457,51.4465336874899],[-0.330579811120447,51.4421888534238],[-0.330964782906169,51.4418849451673],[-0.331364063270804,51.4415697346438],[-0.328485800316887,51.433958725644],[-0.320191773126606,51.4295334033081],[-0.319940908618239,51.4294008367622],[-0.31901378002931,51.4294980743171],[-0.318440402732133,51.4295582057532],[-0.325947416677613,51.4329364022464],[-0.326934876731624,51.4334502357966],[-0.329931237421091,51.4417020841657],[-0.305853232909415,51.4485109103443],[-0.302547817224562,51.4523442852726],[-0.304881918879484,51.4562294769028],[-0.305022033220876,51.4564626811302],[-0.313668179278429,51.4606549619279],[-0.313854906653685,51.46074548552],[-0.317200944725657,51.4654729684972],[-0.294872412569871,51.4848711595201],[-0.289443904327661,51.4860501068583],[-0.276307104967401,51.4799488463032],[-0.273465153845283,51.4763676506932],[-0.270540040700607,51.4726810829882],[-0.260215048755059,51.4703144328646],[-0.257663504931694,51.4712848709992],[-0.257492822103567,51.4712055245743],[-0.257312818819596,51.4714182405149],[-0.251589100329679,51.4735947738937],[-0.251480720048389,51.4736359816367],[-0.251405180380742,51.4738937761436],[-0.249386048423458,51.4807833657601],[-0.24604784692551,51.4847259468928],[-0.238111489367144,51.4879063880744],[-0.233492441648584,51.4879190765548],[-0.228643996851768,51.4854343765101],[-0.227177692043385,51.4826533161949],[-0.225845612567914,51.4787271619701],[-0.224887474762834,51.4759027515368]]]]},"properties":{"LAD25CD":"E09000027","LAD25NM":"Richmond upon Thames"}},{"type":"Feature","geometry":{"type":"Polygon","coordinates":[[[-0.0460295283370462,51.5053511564758],[-0.0402730267781961,51.5068794599966],[-0.035122005983138,51.5062388240445],[-0.0334154871351948,51.5020956817895],[-0.0324206765272085,51.4933580406567],[-0.0323863262307784,51.4930562791944],[-0.0323028890378385,51.492973473446],[-0.0539719679477537,51.4879383858262],[-0.0416433271958962,51.4550049754177],[-0.0618014306463358,51.447786577102],[-0.0739072700998478,51.4262129230519],[-0.0782876818800692,51.4206047134332],[-0.101383006818995,51.4519239774812],[-0.0900394926505244,51.4660655942519],[-0.108224646364217,51.4803067882723],[-0.109125213989273,51.5083548633509],[-0.108805057906591,51.5084462995708],[-0.108710943783188,51.5084503729624],[-0.104676526122011,51.5086249209914],[-0.0885964200890663,51.506884532771],[-0.0880998441977707,51.5068307501761],[-0.0761234589469458,51.5044033170692],[-0.0724306684421993,51.5030869849777],[-0.0708325352365456,51.5025172569459],[-0.0735138871706862,51.5004645696628],[-0.0577560320946397,51.5008510146202],[-0.0572576283645827,51.5008632036694],[-0.0520706934768517,51.5027504809857],[-0.0479005399988052,51.5042009445789],[-0.0478302330659537,51.5042441674619],[-0.0460295283370462,51.5053511564758]]]},"properties":{"LAD25CD":"E09000028","LAD25NM":"Southwark"}},{"type":"Feature","geometry":{"type":"Polygon","coordinates":[[[-0.134321993903791,51.3908470661783],[-0.116842029977448,51.3457628590904],[-0.144576133845834,51.3420876651782],[-0.14557670392873,51.3234929540783],[-0.156523624561657,51.321485286252],[-0.197319340394251,51.3435951598667],[-0.220841625332819,51.3298019706872],[-0.229822682346971,51.3365228045655],[-0.217264425534208,51.3433870908022],[-0.222736428311044,51.3570860723604],[-0.245382434157475,51.3668892943279],[-0.245027866580531,51.3800591554688],[-0.239691091190174,51.3892739323285],[-0.218080128415406,51.3801823745994],[-0.209783879622302,51.3882997551536],[-0.188399006002823,51.3854342806016],[-0.174812978456833,51.3934129458752],[-0.165214785175961,51.3879717138277],[-0.134321993903791,51.3908470661783]]]},"properties":{"LAD25CD":"E09000029","LAD25NM":"Sutton"}},{"type":"Feature","geometry":{"type":"MultiPolygon","coordinates":[[[[0.00136645390955042,51.5042260946716],[0.000516109745909446,51.5040475768075],[0.000852384060337712,51.5045242744285],[0.00136645390955042,51.5042260946716]]],[[[-0.0334546098079645,51.5024392356731],[-0.0334154871351948,51.5020956817895],[-0.035122005983138,51.5062388240445],[-0.0338695788014832,51.5060830180155],[-0.0334546098079645,51.5024392356731]]],[[[-0.0402730267781961,51.5068794599966],[-0.0460295283370462,51.5053511564758],[-0.0429930611827129,51.5072176525936],[-0.0402730267781961,51.5068794599966]]],[[[-0.021129061565773,51.5365081689252],[0.00594628332836147,51.507324275254],[-0.00204585615387899,51.507342668644],[-0.00791528475568811,51.5020081083794],[-0.00864106836119252,51.5013483513626],[-0.00328957989154049,51.491369695655],[-0.00321863460504855,51.4906657854092],[-0.00649837166247987,51.4871259700283],[-0.0182539750195338,51.4869017328643],[-0.0244033449161679,51.4893742304862],[-0.0261924911944529,51.4939160554184],[-0.0262117616628073,51.4939649686835],[-0.0288667316290014,51.5023620197961],[-0.0303733257887865,51.5071927716844],[-0.041881876537095,51.5097198462545],[-0.0420983428656717,51.5097665247412],[-0.0597656797868999,51.5028741506043],[-0.059809035890202,51.5028788545652],[-0.0787063478691949,51.5076794506541],[-0.0793533312083202,51.5078441700774],[-0.0800589166102533,51.5079705434088],[-0.0785291057043016,51.5215119179615],[-0.0624344459546157,51.5355324975372],[-0.016549676137034,51.543329866783],[-0.021129061565773,51.5365081689252]]]]},"properties":{"LAD25CD":"E09000030","LAD25NM":"Tower Hamlets"}},{"type":"Feature","geometry":{"type":"Polygon","coordinates":[[[0.021819035344359,51.6288327861104],[0.00869444540428972,51.6190699014527],[0.0214437715851012,51.6118028969615],[0.0120959005062663,51.5926905007426],[0.0204742041657707,51.5561281250745],[-0.0171743352515583,51.5515772837198],[-0.0283905349440393,51.5610202500371],[-0.047079099058099,51.5625921104878],[-0.0611585720665009,51.5777860361975],[-0.041390716789704,51.6056467844159],[-0.0122596870547121,51.6462286962719],[0.0227195416969588,51.6411154928849],[0.021819035344359,51.6288327861104]]]},"properties":{"LAD25CD":"E09000031","LAD25NM":"Waltham Forest"}},{"type":"Feature","geometry":{"type":"MultiPolygon","coordinates":[[[[-0.195509893712524,51.4655617314097],[-0.19737486402442,51.4652092453709],[-0.198026881149182,51.4653567027357],[-0.216664071246001,51.4695696720128],[-0.21764456842818,51.4712762469355],[-0.195509893712524,51.4655617314097]]],[[[-0.184468950907365,51.4676477770603],[-0.187906166467776,51.4669984957713],[-0.181311672374052,51.4738438375283],[-0.182343539201004,51.4718190310168],[-0.184468950907365,51.4676477770603]]],[[[-0.151211614592545,51.4658611552256],[-0.143610577448564,51.4418389617206],[-0.135888414709844,51.4419758924958],[-0.140358848161646,51.4192637035847],[-0.181939169287309,51.4247312714289],[-0.190026527777626,51.4414645840233],[-0.251085089413751,51.432557791518],[-0.254066366518792,51.4372878642506],[-0.24159865877434,51.4431179850847],[-0.259111198831886,51.4549534889518],[-0.256187822981795,51.4628340747681],[-0.233290023158623,51.4639717456149],[-0.232733298874365,51.4725107587178],[-0.223687207635472,51.4723640307096],[-0.223639066497962,51.4722220865247],[-0.223401522870407,51.4715216728925],[-0.215386353473436,51.4684312804061],[-0.209856992187277,51.4662988001167],[-0.209691744168807,51.4662350621673],[-0.195099374844175,51.4606196251684],[-0.194993760709075,51.4606437446282],[-0.194901611157011,51.4606647897221],[-0.187114608204622,51.4641791520053],[-0.177949731420868,51.4706113700357],[-0.174397155685456,51.4783813230247],[-0.16035236816493,51.4819030170047],[-0.147407210757351,51.4831814152135],[-0.139801888301078,51.4839317780747],[-0.138108765259967,51.4840983073676],[-0.136144303705793,51.4842914934375],[-0.130618267762537,51.4848347379085],[-0.151211614592545,51.4658611552256]]],[[[-0.136407272647755,51.4854326003561],[-0.138151072157116,51.4848167958694],[-0.141727200556853,51.485019004323],[-0.142230614236486,51.485047460942],[-0.136407272647755,51.4854326003561]]]]},"properties":{"LAD25CD":"E09000032","LAD25NM":"Wandsworth"}},{"type":"Feature","geometry":{"type":"MultiPolygon","coordinates":[[[[-0.113449295379141,51.5071197928679],[-0.120396531928177,51.4979176235124],[-0.118823061311694,51.5038400639232],[-0.118324868424955,51.5057269320589],[-0.113449295379141,51.5071197928679]]],[[[-0.152684835329384,51.5375107530782],[-0.129335251259481,51.5134727051536],[-0.111567824442113,51.5153350290831],[-0.111475372963366,51.5107577704465],[-0.121349370238457,51.5074102522213],[-0.122264781903832,51.5038952146376],[-0.1246552226678,51.4947134969963],[-0.124856944842419,51.4943665137409],[-0.128457351672107,51.4882394884782],[-0.136407272647755,51.4854326003561],[-0.142230614236486,51.485047460942],[-0.147480980770779,51.4853441142791],[-0.149979158603456,51.4854851815577],[-0.150248050472509,51.4854494793049],[-0.158457848304668,51.5022261968961],[-0.179521115667993,51.4977661136681],[-0.216020723983129,51.527920360249],[-0.205142405490973,51.5329559007801],[-0.196479321959949,51.5276386356437],[-0.191467608561554,51.5362923581516],[-0.152684835329384,51.5375107530782]]]]},"properties":{"LAD25CD":"E09000033","LAD25NM":"Westminster"}}]}